[{"OBJECT_NAME":"STARLINK-5410","OBJECT_ID":"2022-175BB","EPOCH":"2026-03-09T06:50:24.374976","MEAN_MOTION":15.08839528,"ECCENTRICITY":0.00013903,"INCLINATION":53.2186,"RA_OF_ASC_NODE":30.5688,"ARG_OF_PERICENTER":85.0605,"MEAN_ANOMALY":275.0546,"EPHEMERIS_TYPE":0,"CLASSIFICATION_TYPE":"U","NORAD_CAT_ID":54807,"ELEMENT_SET_NO":999,"REV_AT_EPOCH":18007,"BSTAR":-1.4335698e-5,"MEAN_MOTION_DOT":-5.16e-6,"MEAN_MOTION_DDOT":0},{"OBJECT_NAME":"OBJECT A","OBJECT_ID":"2024-110A","EPOCH":"2026-03-09T23:09:02.134656","MEAN_MOTION":15.1192128,"ECCENTRICITY":0.0007919,"INCLINATION":97.5675,"RA_OF_ASC_NODE":161.4531,"ARG_OF_PERICENTER":228.7681,"MEAN_ANOMALY":131.2868,"EPHEMERIS_TYPE":0,"CLASSIFICATION_TYPE":"U","NORAD_CAT_ID":60012,"ELEMENT_SET_NO":999,"REV_AT_EPOCH":9691,"BSTAR":0.00051932581,"MEAN_MOTION_DOT":8.842e-5,"MEAN_MOTION_DDOT":0}]
